     2.100          NAVIGATION                              RINEX VERSION / TYPE
fic2rin                                 11/05/2012 00:39:11 PGM / RUN BY / DATE
                                                            END OF HEADER
 4 12 11  5  0  0  0.0  .366964377463D-04  .112549969344D-10  .000000000000D+00
     .830000000000D+02  .221875000000D+01  .527307678767D-08 -.253263341755D+01
    -.193715095520D-06  .103881714167D-01  .693649053574D-05  .515368166161D+04
     .864000000000D+05  .176951289177D-06  .216907652272D+01 -.119209289551D-06
     .937510094350D+00  .230593750000D+03  .926269827656D+00 -.822105672573D-08
     .301441127661D-09  .100000000000D+01  .171300000000D+04  .000000000000D+00
     .240000000000D+01  .000000000000D+00 -.651925802231D-08  .830000000000D+02
     .792060000000D+05  .400000000000D+01
 6 12 11  5  0  0  0.0  .466537661850D-03 -.103455022327D-10  .000000000000D+00
     .200000000000D+02 -.352500000000D+02  .483770150969D-08  .252976492924D+01
    -.185891985893D-05  .738611165434D-02  .915490090847D-05  .515368888664D+04
     .864000000000D+05 -.186264514923D-08  .106337433303D+01  .109896063805D-06
     .939121078757D+00  .188937500000D+03 -.418575380030D+00 -.808212236712D-08
     .214294640518D-09  .100000000000D+01  .171300000000D+04  .000000000000D+00
     .240000000000D+01  .000000000000D+00 -.512227416039D-08  .200000000000D+02
     .792060000000D+05  .400000000000D+01
 7 12 11  5  0  0  0.0  .141682568938D-03  .454747350886D-11  .000000000000D+00
     .990000000000D+02  .309062500000D+02  .427410660512D-08 -.905665540834D+00
     .149756669998D-05  .606124708429D-02  .387243926525D-05  .515371677780D+04
     .864000000000D+05  .139698386192D-06 -.952777275661D+00 -.124797224998D-06
     .975747596947D+00  .313906250000D+03 -.294191713484D+01 -.815569686037D-08
    -.928610108910D-11  .100000000000D+01  .171300000000D+04  .000000000000D+00
     .240000000000D+01  .000000000000D+00 -.111758708954D-07  .990000000000D+02
     .792060000000D+05  .400000000000D+01
 8 12 11  5  0  0  0.0  .269711017609D-05  .227373675443D-12  .000000000000D+00
     .109000000000D+03  .181562500000D+02  .375944231015D-08 -.153456030094D+01
     .793486833572D-06  .127700968878D-01  .393390655518D-05  .515363514709D+04
     .864000000000D+05  .931322574615D-08 -.865953323186D+00 -.214204192162D-06
     .998214525196D+00  .322375000000D+03 -.290506160268D+01 -.783711216146D-08
     .145720355552D-09  .100000000000D+01  .171300000000D+04  .000000000000D+00
     .340000000000D+01  .000000000000D+00 -.419095158577D-08  .109000000000D+03
     .792060000000D+05  .400000000000D+01
 9 12 11  5  0  0  0.0  .197439920157D-03  .272848410532D-11  .000000000000D+00
     .111000000000D+03  .292500000000D+02  .412338604129D-08 -.147336768409D+01
     .175088644028D-05  .172203438124D-01  .460818409920D-05  .515365797043D+04
     .864000000000D+05 -.152736902237D-06 -.977351237505D+00  .443309545517D-06
     .984410611602D+00  .303343750000D+03  .164826530583D+01 -.808962267954D-08
    -.628597612185D-10  .100000000000D+01  .171300000000D+04  .000000000000D+00
     .340000000000D+01  .000000000000D+00 -.558793544769D-08  .111000000000D+03
     .792060000000D+05  .400000000000D+01
10 12 11  5  0  0  0.0 -.574444420636D-04 -.125055521494D-11  .000000000000D+00
     .510000000000D+02  .834375000000D+01  .499520807047D-08  .288413470292D+01
     .353902578354D-06  .118968373863D-01  .833347439766D-05  .515373164368D+04
     .864000000000D+05 -.335276126862D-07 -.304628696981D+01 -.152736902237D-06
     .945172202399D+00  .210843750000D+03  .769761522126D+00 -.796997483859D-08
    -.292155026572D-09  .100000000000D+01  .171300000000D+04  .000000000000D+00
     .340000000000D+01  .000000000000D+00 -.279396772385D-08  .510000000000D+02
     .792060000000D+05  .400000000000D+01
11 12 11  5  0  0  0.0 -.319902785122D-03 -.386535248253D-11  .000000000000D+00
     .560000000000D+02  .138437500000D+02  .652312885736D-08 -.731511682741D+00
     .948086380959D-06  .137220519828D-01  .708550214767D-05  .515367469025D+04
     .864000000000D+05 -.353902578354D-07  .188768329829D+01  .257045030594D-06
     .888072918110D+00  .206750000000D+03  .111484917422D+01 -.915966725119D-08
     .352157525917D-09  .100000000000D+01  .171300000000D+04  .000000000000D+00
     .240000000000D+01  .000000000000D+00 -.116415321827D-07  .560000000000D+02
     .792060000000D+05  .400000000000D+01
12 12 11  5  0  0  0.0  .998927280307D-04  .204636307899D-11  .000000000000D+00
     .360000000000D+02 -.694687500000D+02  .395195032888D-08 -.122554558421D+01
    -.356137752533D-05  .401137256995D-02  .618398189545D-05  .515368553352D+04
     .864000000000D+05  .279396772385D-07  .104241482922D+00 -.152736902237D-06
     .982041857574D+00  .273468750000D+03  .144006914215D+00 -.784532678935D-08
    -.767889128522D-10  .100000000000D+01  .171300000000D+04  .000000000000D+00
     .240000000000D+01  .000000000000D+00 -.121071934700D-07  .360000000000D+02
     .792060000000D+05  .400000000000D+01
13 12 11  5  0  0  0.0  .169532839209D-03 -.261479726760D-11  .000000000000D+00
     .570000000000D+02  .797500000000D+02  .388123309751D-08  .143826750733D+01
     .393576920033D-05  .478836765978D-02  .831671059132D-05  .515360253525D+04
     .864000000000D+05  .596046447754D-07 -.192203231344D+01 -.782310962677D-07
     .983789449271D+00  .227062500000D+03  .207937350797D+01 -.773603652269D-08
    -.117504894551D-09  .100000000000D+01  .171300000000D+04  .000000000000D+00
     .240000000000D+01  .000000000000D+00 -.111758708954D-07  .570000000000D+02
     .792060000000D+05  .400000000000D+01
14 12 11  5  0  0  0.0  .216158572584D-03  .682121026330D-12  .000000000000D+00
     .340000000000D+02  .611250000000D+02  .407516974718D-08  .165965503447D+01
     .307895243168D-05  .683787860908D-02  .804848968983D-05  .515366893959D+04
     .864000000000D+05 -.145286321640D-06 -.194987072577D+01 -.100582838058D-06
     .976567149987D+00  .235187500000D+03 -.202856022613D+01 -.786568478020D-08
    -.871464871438D-10  .100000000000D+01  .171300000000D+04  .000000000000D+00
     .240000000000D+01  .000000000000D+00 -.884756445885D-08  .340000000000D+02
     .792060000000D+05  .400000000000D+01
15 12 11  5  0  0  0.0 -.988771207631D-04 -.909494701773D-12  .000000000000D+00
     .810000000000D+02  .615312500000D+02  .492770525870D-08  .124982505040D+01
     .344589352608D-05  .487346190494D-02  .800564885139D-05  .515366327286D+04
     .864000000000D+05  .260770320892D-07 -.204305252461D+01  .540167093277D-07
     .943353868372D+00  .212437500000D+03  .505032178103D-01 -.826605860023D-08
    -.212151694112D-09  .100000000000D+01  .171300000000D+04  .000000000000D+00
     .240000000000D+01  .000000000000D+00 -.102445483208D-07  .810000000000D+02
     .792060000000D+05  .400000000000D+01
16 12 11  5  0  0  0.0 -.249069184065D-03 -.568434188608D-12  .000000000000D+00
     .150000000000D+02 -.753437500000D+02  .394909306701D-08  .281615784883D+01
    -.390782952309D-05  .656461494509D-02  .662542879581D-05  .515377802849D+04
     .864000000000D+05 -.968575477600D-07  .122492290044D+00  .931322574615D-08
     .982807424548D+00  .264812500000D+03  .261701005583D-01 -.780961101593D-08
    -.107504477993D-09  .100000000000D+01  .171300000000D+04  .000000000000D+00
     .240000000000D+01  .000000000000D+00 -.977888703346D-08  .150000000000D+02
     .792060000000D+05  .400000000000D+01
17 12 11  5  0  0  0.0  .815787352622D-04 -.341060513165D-11  .000000000000D+00
     .540000000000D+02 -.474687500000D+02  .424231956678D-08  .190416668679D+01
    -.235624611378D-05  .767907011323D-02  .960007309914D-05  .515376204681D+04
     .864000000000D+05 -.199303030968D-06  .116116729062D+01 -.800937414169D-07
     .963672172265D+00  .193875000000D+03 -.229227626239D+01 -.788747140199D-08
     .335371112410D-09  .100000000000D+01  .171300000000D+04  .000000000000D+00
     .240000000000D+01  .000000000000D+00 -.107102096081D-07  .540000000000D+02
     .792060000000D+05  .400000000000D+01
18 12 11  5  0  0  0.0  .223047100008D-03  .181898940355D-11  .000000000000D+00
     .680000000000D+02  .559375000000D+01  .533236497155D-08 -.291909028339D+01
     .214204192162D-06  .136209408520D-01  .772438943386D-05  .515374338722D+04
     .864000000000D+05  .162050127983D-06 -.305997805731D+01 -.251457095146D-06
     .928960842056D+00  .211312500000D+03 -.213775438895D+01 -.821248494010D-08
    -.248224625266D-09  .100000000000D+01  .171300000000D+04  .000000000000D+00
     .240000000000D+01  .000000000000D+00 -.107102096081D-07  .680000000000D+02
     .792060000000D+05  .400000000000D+01
19 12 11  5  0  0  0.0 -.319246668369D-03 -.352429196937D-11  .000000000000D+00
     .210000000000D+02 -.276562500000D+02  .437446792843D-08  .110770371763D+01
    -.139698386192D-05  .866051414050D-02  .964105129242D-05  .515363833427D+04
     .864000000000D+05 -.707805156708D-07  .121373553725D+01  .139698386192D-06
     .960955350528D+00  .193468750000D+03  .269328199629D+00 -.793033033009D-08
     .217509060125D-09  .100000000000D+01  .171300000000D+04  .000000000000D+00
     .240000000000D+01  .000000000000D+00 -.144354999065D-07  .210000000000D+02
     .792060000000D+05  .400000000000D+01
20 12 11  5  0  0  0.0  .724308192730D-04  .113686837722D-11  .000000000000D+00
     .520000000000D+02  .587500000000D+01  .545344144344D-08 -.241960205718D+01
     .288709998131D-06  .521678430960D-02  .761821866035D-05  .515360185814D+04
     .864000000000D+05  .968575477600D-07 -.311356320463D+01  .372529029846D-07
     .929553546242D+00  .215750000000D+03  .127308377867D+01 -.832856120372D-08
    -.216437586923D-09  .100000000000D+01  .171300000000D+04  .000000000000D+00
     .240000000000D+01  .000000000000D+00 -.791624188423D-08  .520000000000D+02
     .792060000000D+05  .400000000000D+01
